ONEWEB-0033             
1 45142U 20008M   24191.21881219 -.00000665  00000+0 -19407-2 0  9996
2 45142  87.8939 177.0937 0001837  82.7206 277.4130 13.10371787216393
ONEWEB-0035             
1 45143U 20008N   24191.02130223  .00000476  00000+0  13271-2 0  9999
2 45143  87.8946 177.1150 0001990  83.4786 276.6568 13.10374232216081
ONEWEB-0036             
1 45144U 20008P   24191.01133687  .00000037  00000+0  68384-4 0  9996
2 45144  87.8943 177.0733 0002134  90.4422 269.6950 13.10376823216480
ONEWEB-0038             
1 45145U 20008Q   24190.89395274  .00000121  00000+0  30603-3 0  9990
2 45145  87.8973 162.0239 0002792  76.6768 283.4671 13.11417757217497
ONEWEB-0039             
1 45146U 20008R   24191.22213013 -.00000595  00000+0 -17422-2 0  9999
2 45146  87.8943 177.0498 0002429  93.2720 266.8685 13.10372960216223
ONEWEB-0040             
1 45147U 20008S   24191.21549518 -.00000577  00000+0 -16890-2 0  9999
2 45147  87.8947 177.0539 0002116  85.9632 274.1737 13.10372909215937
ONEWEB-0043             
1 45149U 20008U   24191.21715519 -.00000606  00000+0 -17726-2 0  9999
2 45149  87.8940 177.0592 0002474  94.1796 265.9614 13.10373399216242
ONEWEB-0044             
1 45150U 20008V   24191.01632139  .00000291  00000+0  79788-3 0  9990
2 45150  87.8945 177.0938 0002331  92.2326 267.9068 13.10375934216504
